FENGYUN 1C DEB          
1 36706U 99025EAC 17345.09934467  .00007943  00000-0  14835-2 0  9995
2 36706  98.8485 296.6295 0033580 240.1459 119.6403 14.64874861512257
